start=new Date('2022-07-19T00:00:00.000Z').valueOf();
sats=[{"TLE_LINE2":"2 52842  53.2176 249.5812 0001115  38.1742 229.3215 15.66938007  1304","OBJECT_TYPE":"PAYLOAD","OBJECT_NAME":"STARLINK-4046","TLE_LINE1":"1 52842U 22062N   22199.91667824 -.01120699  00000-0 -11421-1 0  9999","COUNTRY_CODE":"US","MEAN_MOTION":"15.66938007","APOAPSIS":"368.425","ELEMENT_SET_NO":"999","OBJECT_ID":"2022-062N","MEAN_ELEMENT_THEORY":"SGP4","ARG_OF_PERICENTER":"38.1742","FILE":"3517175","INCLINATION":"53.2176","BSTAR":"-0.01142100000000","CLASSIFICATION_TYPE":"U","GP_ID":"208409812","MEAN_ANOMALY":"229.3215","NORAD_CAT_ID":"52842","REF_FRAME":"TEME","RCS_SIZE":"LARGE","REV_AT_EPOCH":"130","DECAY_DATE":null,"SITE":"AFETR","EPHEMERIS_TYPE":"0","RA_OF_ASC_NODE":"249.5812","PERIOD":"91.899","PERIAPSIS":"366.921","MEAN_MOTION_DOT":"-0.01120699","TIME_SYSTEM":"UTC","EPOCH":"2022-07-18T22:00:00.999936","MEAN_MOTION_DDOT":"0.0000000000000","CENTER_NAME":"EARTH","LAUNCH_DATE":"2022-06-17","ECCENTRICITY":"0.00011150","SEMIMAJOR_AXIS":"6745.808"},{"TLE_LINE2":"2 52843  53.2177 249.6056 0001677  15.5397 257.2507 15.66996229  1309","OBJECT_TYPE":"PAYLOAD","OBJECT_NAME":"STARLINK-4188","TLE_LINE1":"1 52843U 22062P   22199.91667824 -.01120284  00000-0 -11387-1 0  9991","COUNTRY_CODE":"US","MEAN_MOTION":"15.66996229","APOAPSIS":"368.637","ELEMENT_SET_NO":"999","OBJECT_ID":"2022-062P","MEAN_ELEMENT_THEORY":"SGP4","FILE":"3517175","ARG_OF_PERICENTER":"15.5397","INCLINATION":"53.2177","BSTAR":"-0.01138700000000","GP_ID":"208409666","CLASSIFICATION_TYPE":"U","MEAN_ANOMALY":"257.2507","NORAD_CAT_ID":"52843","REF_FRAME":"TEME","RCS_SIZE":"LARGE","DECAY_DATE":null,"REV_AT_EPOCH":"130","SITE":"AFETR","EPHEMERIS_TYPE":"0","RA_OF_ASC_NODE":"249.6056","PERIOD":"91.896","PERIAPSIS":"366.374","MEAN_MOTION_DOT":"-0.01120284","EPOCH":"2022-07-18T22:00:00.999936","TIME_SYSTEM":"UTC","MEAN_MOTION_DDOT":"0.0000000000000","CENTER_NAME":"EARTH","LAUNCH_DATE":"2022-06-17","SEMIMAJOR_AXIS":"6745.641","ECCENTRICITY":"0.00016770"},{"BSTAR":"-0.01143400000000","CLASSIFICATION_TYPE":"U","GP_ID":"208409554","MEAN_ANOMALY":"265.7115","NORAD_CAT_ID":"52844","REF_FRAME":"TEME","RCS_SIZE":"LARGE","DECAY_DATE":null,"REV_AT_EPOCH":"130","EPHEMERIS_TYPE":"0","SITE":"AFETR","PERIOD":"91.897","RA_OF_ASC_NODE":"249.5935","PERIAPSIS":"365.449","TIME_SYSTEM":"UTC","EPOCH":"2022-07-18T22:00:00.999936","MEAN_MOTION_DOT":"-0.01106101","MEAN_MOTION_DDOT":"0.0000000000000","CENTER_NAME":"EARTH","SEMIMAJOR_AXIS":"6745.719","LAUNCH_DATE":"2022-06-17","ECCENTRICITY":"0.00031650","TLE_LINE2":"2 52844  53.2177 249.5935 0003165   4.4315 265.7115 15.66968960  1306","TLE_LINE1":"1 52844U 22062Q   22199.91667824 -.01106101  00000-0 -11434-1 0  9997","OBJECT_NAME":"STARLINK-4208","OBJECT_TYPE":"PAYLOAD","COUNTRY_CODE":"US","MEAN_MOTION":"15.66968960","APOAPSIS":"369.719","ELEMENT_SET_NO":"999","FILE":"3517175","ARG_OF_PERICENTER":"4.4315","OBJECT_ID":"2022-062Q","MEAN_ELEMENT_THEORY":"SGP4","INCLINATION":"53.2177"},{"BSTAR":"-0.01143000000000","CLASSIFICATION_TYPE":"U","GP_ID":"208410213","MEAN_ANOMALY":"223.0969","NORAD_CAT_ID":"52845","RCS_SIZE":"LARGE","REF_FRAME":"TEME","DECAY_DATE":null,"REV_AT_EPOCH":"130","EPHEMERIS_TYPE":"0","SITE":"AFETR","PERIOD":"91.895","RA_OF_ASC_NODE":"249.6077","PERIAPSIS":"366.606","TIME_SYSTEM":"UTC","EPOCH":"2022-07-18T22:00:00.999936","MEAN_MOTION_DOT":"-0.01124402","MEAN_MOTION_DDOT":"0.0000000000000","CENTER_NAME":"EARTH","ECCENTRICITY":"0.00012920","LAUNCH_DATE":"2022-06-17","SEMIMAJOR_AXIS":"6745.612","TLE_LINE2":"2 52845  53.2177 249.6077 0001292  50.3542 223.0969 15.67006168  1304","TLE_LINE1":"1 52845U 22062R   22199.91667824 -.01124402  00000-0 -11430-1 0  9998","OBJECT_TYPE":"PAYLOAD","OBJECT_NAME":"STARLINK-4168","COUNTRY_CODE":"US","MEAN_MOTION":"15.67006168","APOAPSIS":"368.349","ELEMENT_SET_NO":"999","ARG_OF_PERICENTER":"50.3542","FILE":"3517175","OBJECT_ID":"2022-062R","MEAN_ELEMENT_THEORY":"SGP4","INCLINATION":"53.2177"},{"PERIAPSIS":"366.733","RA_OF_ASC_NODE":"249.6027","PERIOD":"91.896","SITE":"AFETR","EPHEMERIS_TYPE":"0","ECCENTRICITY":"0.00011650","LAUNCH_DATE":"2022-06-17","SEMIMAJOR_AXIS":"6745.654","CENTER_NAME":"EARTH","MEAN_MOTION_DDOT":"0.0000000000000","MEAN_MOTION_DOT":"-0.01124195","TIME_SYSTEM":"UTC","EPOCH":"2022-07-18T22:00:00.999936","NORAD_CAT_ID":"52846","MEAN_ANOMALY":"209.9035","CLASSIFICATION_TYPE":"U","GP_ID":"208409442","BSTAR":"-0.01143500000000","DECAY_DATE":null,"REV_AT_EPOCH":"130","REF_FRAME":"TEME","RCS_SIZE":"LARGE","MEAN_MOTION":"15.66991546","COUNTRY_CODE":"US","INCLINATION":"53.2177","MEAN_ELEMENT_THEORY":"SGP4","OBJECT_ID":"2022-062S","ARG_OF_PERICENTER":"62.2244","FILE":"3517175","ELEMENT_SET_NO":"999","APOAPSIS":"368.305","TLE_LINE2":"2 52846  53.2177 249.6027 0001165  62.2244 209.9035 15.66991546  1309","OBJECT_NAME":"STARLINK-4212","OBJECT_TYPE":"PAYLOAD","TLE_LINE1":"1 52846U 22062S   22199.91667824 -.01124195  00000-0 -11435-1 0  9993"},{"TLE_LINE2":"2 52847  53.2177 249.6105 0001580  19.2258 255.5493 15.67018173  1307","TLE_LINE1":"1 52847U 22062T   22199.91667824 -.01120804  00000-0 -11383-1 0  9999","OBJECT_NAME":"STARLINK-4206","OBJECT_TYPE":"PAYLOAD","MEAN_MOTION":"15.67018173","COUNTRY_CODE":"US","ARG_OF_PERICENTER":"19.2258","FILE":"3517175","MEAN_ELEMENT_THEORY":"SGP4","OBJECT_ID":"2022-062T","INCLINATION":"53.2177","APOAPSIS":"368.509","ELEMENT_SET_NO":"999","MEAN_ANOMALY":"255.5493","NORAD_CAT_ID":"52847","BSTAR":"-0.01138300000000","CLASSIFICATION_TYPE":"U","GP_ID":"208410036","RCS_SIZE":"LARGE","REF_FRAME":"TEME","REV_AT_EPOCH":"130","DECAY_DATE":null,"PERIOD":"91.894","RA_OF_ASC_NODE":"249.6105","PERIAPSIS":"366.377","EPHEMERIS_TYPE":"0","SITE":"AFETR","CENTER_NAME":"EARTH","LAUNCH_DATE":"2022-06-17","ECCENTRICITY":"0.00015800","SEMIMAJOR_AXIS":"6745.578","TIME_SYSTEM":"UTC","EPOCH":"2022-07-18T22:00:00.999936","MEAN_MOTION_DOT":"-0.01120804","MEAN_MOTION_DDOT":"0.0000000000000"},{"INCLINATION":"53.2177","MEAN_ELEMENT_THEORY":"SGP4","OBJECT_ID":"2022-062U","ARG_OF_PERICENTER":"31.2802","FILE":"3517175","ELEMENT_SET_NO":"999","APOAPSIS":"368.529","MEAN_MOTION":"15.66975643","COUNTRY_CODE":"US","OBJECT_TYPE":"PAYLOAD","OBJECT_NAME":"STARLINK-4202","TLE_LINE1":"1 52848U 22062U   22199.91667824 -.01122375  00000-0 -11421-1 0  9998","TLE_LINE2":"2 52848  53.2177 249.5966 0001430  31.2802 239.5248 15.66975643  1308","SEMIMAJOR_AXIS":"6745.700","LAUNCH_DATE":"2022-06-17","ECCENTRICITY":"0.00014300","CENTER_NAME":"EARTH","MEAN_MOTION_DDOT":"0.0000000000000","MEAN_MOTION_DOT":"-0.01122375","TIME_SYSTEM":"UTC","EPOCH":"2022-07-18T22:00:00.999936","PERIAPSIS":"366.600","RA_OF_ASC_NODE":"249.5966","PERIOD":"91.897","SITE":"AFETR","EPHEMERIS_TYPE":"0","REV_AT_EPOCH":"130","DECAY_DATE":null,"RCS_SIZE":"LARGE","REF_FRAME":"TEME","NORAD_CAT_ID":"52848","MEAN_ANOMALY":"239.5248","GP_ID":"208409924","CLASSIFICATION_TYPE":"U","BSTAR":"-0.01142100000000"},{"SITE":"AFETR","EPHEMERIS_TYPE":"0","PERIAPSIS":"347.836","RA_OF_ASC_NODE":"249.5127","PERIOD":"91.535","MEAN_MOTION_DDOT":"0.0000000000000","MEAN_MOTION_DOT":"0.00048863","EPOCH":"2022-07-18T22:00:00.999936","TIME_SYSTEM":"UTC","SEMIMAJOR_AXIS":"6727.984","LAUNCH_DATE":"2022-06-17","ECCENTRICITY":"0.00029920","CENTER_NAME":"EARTH","CLASSIFICATION_TYPE":"U","GP_ID":"208410137","BSTAR":"0.00035096000000","NORAD_CAT_ID":"52849","MEAN_ANOMALY":"288.7774","REV_AT_EPOCH":"130","DECAY_DATE":null,"RCS_SIZE":"LARGE","REF_FRAME":"TEME","COUNTRY_CODE":"US","MEAN_MOTION":"15.73169005","ELEMENT_SET_NO":"999","APOAPSIS":"351.862","INCLINATION":"53.2148","OBJECT_ID":"2022-062V","MEAN_ELEMENT_THEORY":"SGP4","ARG_OF_PERICENTER":"16.0356","FILE":"3517175","TLE_LINE2":"2 52849  53.2148 249.5127 0002992  16.0356 288.7774 15.73169005  1300","OBJECT_NAME":"STARLINK-4197","OBJECT_TYPE":"PAYLOAD","TLE_LINE1":"1 52849U 22062V   22199.91667824  .00048863  00000-0  35096-3 0  9991"},{"ELEMENT_SET_NO":"999","APOAPSIS":"368.212","INCLINATION":"53.2177","MEAN_ELEMENT_THEORY":"SGP4","OBJECT_ID":"2022-062W","FILE":"3517175","ARG_OF_PERICENTER":"60.0322","COUNTRY_CODE":"US","MEAN_MOTION":"15.67012744","OBJECT_TYPE":"PAYLOAD","OBJECT_NAME":"STARLINK-4187","TLE_LINE1":"1 52850U 22062W   22199.91667824 -.01123455  00000-0 -11417-1 0  9996","TLE_LINE2":"2 52850  53.2177 249.6073 0001118  60.0322 214.0808 15.67012744  1306","MEAN_MOTION_DDOT":"0.0000000000000","MEAN_MOTION_DOT":"-0.01123455","EPOCH":"2022-07-18T22:00:00.999936","TIME_SYSTEM":"UTC","LAUNCH_DATE":"2022-06-17","SEMIMAJOR_AXIS":"6745.593","ECCENTRICITY":"0.00011180","CENTER_NAME":"EARTH","SITE":"AFETR","EPHEMERIS_TYPE":"0","PERIAPSIS":"366.704","RA_OF_ASC_NODE":"249.6073","PERIOD":"91.895","DECAY_DATE":null,"REV_AT_EPOCH":"130","REF_FRAME":"TEME","RCS_SIZE":"LARGE","CLASSIFICATION_TYPE":"U","GP_ID":"208409813","BSTAR":"-0.01141700000000","NORAD_CAT_ID":"52850","MEAN_ANOMALY":"214.0808"},{"PERIOD":"91.533","RA_OF_ASC_NODE":"249.5112","PERIAPSIS":"347.612","EPHEMERIS_TYPE":"0","SITE":"AFETR","CENTER_NAME":"EARTH","SEMIMAJOR_AXIS":"6727.888","LAUNCH_DATE":"2022-06-17","ECCENTRICITY":"0.00031810","TIME_SYSTEM":"UTC","EPOCH":"2022-07-18T22:00:00.999936","MEAN_MOTION_DOT":"-0.00005220","MEAN_MOTION_DDOT":"0.0000000000000","MEAN_ANOMALY":"292.4318","NORAD_CAT_ID":"52851","BSTAR":"-0.00003276100000","CLASSIFICATION_TYPE":"U","GP_ID":"208409667","RCS_SIZE":"LARGE","REF_FRAME":"TEME","DECAY_DATE":null,"REV_AT_EPOCH":"130","MEAN_MOTION":"15.73202654","COUNTRY_CODE":"US","FILE":"3517175","ARG_OF_PERICENTER":"12.9769","OBJECT_ID":"2022-062X","MEAN_ELEMENT_THEORY":"SGP4","INCLINATION":"53.2142","APOAPSIS":"351.893","ELEMENT_SET_NO":"999","TLE_LINE2":"2 52851  53.2142 249.5112 0003181  12.9769 292.4318 15.73202654  1309","TLE_LINE1":"1 52851U 22062X   22199.91667824 -.00005220  00000-0 -32761-4 0  9993","OBJECT_NAME":"STARLINK-3809","OBJECT_TYPE":"PAYLOAD"}];
